#dP2024  1 13 12  0  0.00000000      96 __u+U IGS20 EXT  IAC
## 2296 561600.00000000   900.00000000 60322 0.5000000000000
+  117   C06C07C08C09C10C11C12C13C14C16C19C20C21C22C23C24C25
+        C26C27C28C29C30C32C33C34C35C36C37C38C39C40C41C42C43
+        C44C45C46E02E03E04E05E07E08E09E10E11E12E13E14E15E18
+        E19E21E24E25E26E27E30E31E33E34E36G01G02G03G04G05G06
+        G07G08G09G10G11G12G13G14G15G16G17G18G19G20G21G22G23
+        G25G26G28G29G30G31G32J02J04R01R02R03R04R05R07R08R09
+        R11R12R13R14R15R16R17R18R19R20R21R22R24R25R26  0  0
++         0  0  0  0  0  0  0  0  0  0  0  0  0  0  0  0  0
++         0  0  0  0  0  0  0  0  0  0  0  0  0  0  0  0  0
++         0  0  0  0  0  0  0  0  0  0  0  0  0  0  0  0  0
++         0  0  0  0  0  0  0  0  0  0  0  0  0  0  0  0  0
++         0  0  0  0  0  0  0  0  0  0  0  0  0  0  0  0  0
++         0  0  0  0  0  0  0  0  0  0  0  0  0  0  0  0  0
++         0  0  0  0  0  0  0  0  0  0  0  0  0  0  0  0  0
%c M  cc GPS ccc cccc cccc cccc cccc ccccc ccccc ccccc ccccc
%c cc cc ccc ccc cccc cccc cccc cccc ccccc ccccc ccccc ccccc
%f  0.0000000  0.000000000  0.00000000000  0.000000000000000
%f  0.0000000  0.000000000  0.00000000000  0.000000000000000
%i    0    0    0    0      0      0      0      0         0
%i    0    0    0    0      0      0      0      0         0
/* IAC                                ULTRA-RAPID PREDICTION
/* S/V CLOCKS ARE ALIGNED TO GNSS TIME                      
/* G:C1WC2W R:C1PC2P E:C1XC5X C:C2IC6I J:C1CC2S             
/* PCV:IGS20_2290 OL/AL:FES2004  NONE     YN ORB:CoN CLK:CoN
*  2024 01 14  7 15  0.00000000
PC06 -18118.076777  35997.455240  11912.346442     46.922599
PC07  -1788.284749  35978.402400  22143.135705   -634.882013
PC08  -9048.318696  19192.552585 -36447.800304    113.683355
PC09 -10072.461290  34650.431169  21711.677135   -350.577161
PC10   3955.138784  38355.858394  17992.745382    126.637489
PC11 -12645.311992  24664.371301   3357.320488    357.271363
PC12 -17727.937456  10340.807530  18952.967676    796.870098
PC13  -1004.314792  21684.186519 -35980.356484    407.230560
PC14  -4951.945709  17003.482602 -21565.021519    -36.639077
PC16 -18165.670439  35982.179576  12000.825402   -280.600388
PC19  -3646.962157 -22106.211579  16649.603967   -938.186319
PC20  11539.914368 -10556.376583  23122.210393    -63.885244
PC21 -21104.588448  -8501.726138 -16130.180844   -964.313906
PC22 -17619.174245 -21626.395550    167.575937   -148.391028
PC23  13763.553595  12809.176308  20612.320648   -790.576002
PC24 -23895.103230  10923.159274   9424.568754    788.006099
PC25  -6053.490589  16865.461522  21382.180817    301.444171
PC26 -26953.461760   -201.920683  -7320.348291   -234.478238
PC27  16920.540135   -791.255522 -22195.103113    256.494191
PC28   8867.421904  16790.178768 -20441.459027    194.574078
PC29   5259.266852 -26908.962566   5207.245720    227.938992
PC30  15910.458978 -19089.841293 -12724.566464    -15.141326
PC32  21216.145265   8418.012842  16076.524451   -553.542149
PC33   3723.892498  22069.013466 -16671.564505   -943.132006
PC34 -15420.572995  20226.977881  11446.190949    346.779556
PC35  -9521.966750 -16535.469538  20367.553534    457.678320
PC36   7141.552075 -16693.369918 -21176.144337    -53.408150
PC37  26754.283102   1177.216805   7797.050024   -931.866763
PC38 -17971.784191  19488.416065 -32763.093235    130.353413
PC39 -21603.491238  35865.284585   3787.695423     -6.637590
PC40  -5919.228208  32571.787885  26259.409388    -52.016893
PC41  17343.391430  21846.876756   -890.737971   -879.625877
PC42 -12701.305220   9189.593089 -23041.900819   -466.067111
PC43  -5895.809976  26917.160260  -4334.988423     56.331087
PC44 -16947.646044   1149.251670  22124.782496    353.266299
PC45 -14109.702746 -12569.986948 -20554.021213    -62.939431
PC46  23256.806103 -11355.782731 -10394.382168   -115.506289
PE02  13680.626783  19432.829971  17620.933228     94.900359
PE03   7456.141327  27970.756746   6192.279537    -86.891710
PE04 -16238.703217 -13028.373312 -21039.064745   -303.239764
PE05  -5554.565746  26449.271763 -12067.261921   4710.154484
PE07  15550.113015  -8991.984532  23528.692848    -98.310146
PE08  15979.088109  13714.568775  20802.857933   -207.734994
PE09 -15440.245836   8855.565343 -23652.433935   -298.910445
PE10 -24490.769882   5550.585126  15674.210300   -594.015524
PE11 -25489.950814  13679.363846   6230.958431   3280.124746
PE12 -20009.154044  -2692.998866  21643.645268   -861.991784
PE13  25547.581462 -13260.733000  -6914.148703    -19.902732
PE14 -12435.341448 -14712.047498  13620.206990     10.038623
PE15  19635.537456   3052.791343 -21929.133084    -80.092577
PE18  16282.714106  21284.627394 -18096.551485    208.921549
PE19  -5855.089523 -28738.031642  -4029.264672   -816.341875
PE21   6610.030746 -15458.175996 -24369.584624   -573.805972
PE24 -24283.289289   1891.979383  16818.558105   -541.124329
PE25  -7048.061327  15258.347837  24362.982590     -0.546424
PE26  15871.318287 -21688.024485  12418.688915    338.789139
PE27  23989.621027  -2313.484080 -17179.174423   -248.939511
PE30  26918.422647  12282.222081    296.023594   -823.115065
PE31 -27041.162929 -12053.673705    -60.996684    -13.738762
PE33  -1726.999021 -17636.884693  23717.873157      5.918309
PE34   2331.116600  17341.969818 -23872.410242    -88.897671
PE36 -16439.455077  21547.895200 -11877.931408   -171.592165
PG01  -7530.518412  19104.109894 -17003.969477    166.062496
PG02 -13289.834818  20546.988149  -9527.425492   -501.132903
PG03  -1923.689651  15101.049512 -21920.059169    124.960850
PG04  -1968.582585  25739.152354  -5925.968230    265.631212
PG05  14240.335646  -9454.059611  20179.895725   -157.904155
PG06  21243.925165  -2713.831614 -15703.489613    445.269453
PG07   7271.497806  14027.062388  21800.334164    -36.896431
PG08  -6619.124102  21438.973367  13785.228651   -162.011364
PG09   7613.547004  24737.284901   5740.245192     58.310536
PG10 -24350.317841 -11035.666750    808.234774    -69.270979
PG11  23446.544115 -10953.874486  -5836.887414   -539.230040
PG12   3193.164441 -15348.018413 -21733.574913   -467.707385
PG13  13082.749439 -13161.349139  18713.702518    615.676206
PG14  22602.992605  13576.825776   3959.285069    298.204011
PG15   4133.001658 -22207.260113  13313.129700    117.060622
PG16 -20126.535645   2647.497293  17037.056858   -384.481103
PG17  12394.675088  15907.094844 -16778.564873    719.909609
PG18  -7828.172727 -12738.183659  21961.194536   -531.661081
PG19  14693.686168   6709.279131 -21334.844828    426.311930
PG20  23857.536076  -2602.867470  11248.986335    391.615126
PG21 -16178.486180  19553.561912  -5369.227829    138.452559
PG22  23995.541718  10350.712667  -3330.114867     48.545462
PG23 -17583.365675 -15852.300739  12251.320240    135.042689
PG25  -9659.508272 -17681.754334 -17777.025599    485.191638
PG26 -25253.856290  -2032.114192   8421.648334    200.473133
PG28 -20004.866469    378.052384 -17486.691027    -98.268389
PG29  -4432.563131 -25658.874250   4911.661765   -608.714098
PG30  16680.010307   5984.123542  19980.812887   -445.648099
PG31 -23477.927385   7504.080337 -10621.417390   -227.288044
PG32 -14592.571762 -12030.160877 -18539.248560   -604.926877
PJ02 -28282.445393  20729.442513  28514.027944     -1.164234
PJ04 -19474.147861  25424.307403 -22341.916416     76.829923
PR01 -12744.311796 -22084.148242    619.325539     74.539441
PR02 -15357.625361 -12759.365157 -15874.406532    -22.386083
PR03  -9922.194159   4415.574337 -23034.704725     92.683282
PR04    914.655330  18564.053139 -17430.519086    219.264872
PR05  11085.662740  22830.199769  -2394.176058    125.317283
PR07   9424.143043  -5390.221449  23123.525436     73.547097
PR08  -1095.157271 -18759.051431  17330.547649    -74.009268
PR09  24289.591344   3229.539163   7244.677769    164.272693
PR11  10209.880864 -10012.933218 -21121.002080   -226.449096
PR12 -11108.929138 -10020.751702 -20648.058559     35.592199
PR13 -23241.537424  -4536.378665  -9512.648250    -43.272575
PR14 -22998.112259   4775.566318   9931.851861     25.945861
PR15  -8744.005044  10328.642095  21632.621243     83.116617
PR16  10867.065193   9892.491460  20859.368857     22.446227
PR17 -16040.830873  15435.298735  12501.798339     52.219038
PR18 -11853.628196  22241.084838  -3729.142147    122.043923
PR19  -3238.962870  18645.695659 -17096.516957   -261.982618
PR20  11098.791094   1728.206286 -22891.953572   -106.777800
PR21  16092.671877 -15607.913953 -12141.707954    -68.790646
PR22  11890.520281 -22063.344354   4818.366976    103.087010
PR24 -11843.733162   -997.585983  22593.918451    -39.821866
PR25  16790.301364 -14706.795180 -12322.577756     35.908911
PR26   -645.499436 -18222.839899  17849.419039   -203.589623
EOF
